STARLINK-2565
1 48280U 21036E   26090.45999195  .00320457  00000+0  20156-1 0  9997
2 48280  53.0544 358.8834 0001483  88.1627 271.9532 15.07161181271383
